[{"name":"SALSAT","l1":"1 46495U 20068K   26183.25417132  .00008637  00000+0  29987-3 0  9990","l2":"2 46495  97.8847 187.2381 0008038 243.7769 116.2645 15.30013367317667","cat":"science"},{"name":"APRIZESAT 2","l1":"1 28366U 04025A   26183.73154228  .00000271  00000+0  97092-4 0  9998","l2":"2 28366  98.1028 348.8330 0105078 202.5060 157.1502 14.38042882153875","cat":"communications"},{"name":"SAUDICOMSAT 1","l1":"1 28369U 04025D   26183.75903838  .00000441  00000+0  11217-3 0  9995","l2":"2 28369  98.5771 194.3106 0031619 337.9896  21.9941 14.55486304166397","cat":"other"},{"name":"SAUDICOMSAT 2","l1":"1 28370U 04025E   26183.51356244  .00000274  00000+0  82103-4 0  9991","l2":"2 28370  98.6639 196.1932 0054779 212.2838 147.4998 14.49989407162323","cat":"other"},{"name":"APRIZESAT 1","l1":"1 28372U 04025G   26182.97492777  .00000299  00000+0  85480-4 0  9992","l2":"2 28372  98.6303 194.1029 0045705 109.8102 250.8029 14.51785626164058","cat":"communications"},{"name":"NANOSAT-1","l1":"1 28493U 04049B   26183.64959795  .00001228  00000+0  16890-3 0  9996","l2":"2 28493  98.2297 320.6902 0002935 230.9421 129.1529 14.80190945157730","cat":"other"},{"name":"SAUDICOMSAT 7","l1":"1 31119U 07012C   26183.67339171  .00000656  00000+0  12613-3 0  9994","l2":"2 31119  98.3787 158.1226 0056379 146.8076 213.6684 14.66125922 24707","cat":"other"},{"name":"SAUDICOMSAT 6","l1":"1 31121U 07012E   26183.75688014  .00000575  00000+0  11961-3 0  9994","l2":"2 31121  98.4106 151.5638 0070391 278.5606  80.7623 14.62575601 22468","cat":"other"},{"name":"SAUDICOMSAT 5","l1":"1 31124U 07012H   26183.76147616  .00000884  00000+0  16009-3 0  9997","l2":"2 31124  98.3498 158.9562 0048707  76.9930 283.6706 14.68178563 25884","cat":"other"},{"name":"SAUDICOMSAT 3","l1":"1 31125U 07012J   26183.69497355  .00001056  00000+0  17991-3 0  9991","l2":"2 31125  98.3153 159.4356 0039227   5.0523 355.1071 14.70733411 27107","cat":"other"},{"name":"SAUDICOMSAT 4","l1":"1 31127U 07012L   26183.73219671  .00000521  00000+0  10539-3 0  9998","l2":"2 31127  98.3992 156.6204 0062697 208.8270 150.9463 14.64526583 23565","cat":"other"},{"name":"APRIZESAT 4","l1":"1 35684U 09041D   26183.15936325  .00000764  00000+0  97714-4 0  9992","l2":"2 35684  98.1409 258.7781 0041886 273.0980  86.5440 14.83899214913585","cat":"communications"},{"name":"APRIZESAT 3","l1":"1 35686U 09041F   26183.68055769  .00001201  00000+0  10820-3 0  9995","l2":"2 35686  98.2079 337.6483 0061916  16.9430 343.3839 14.96282760918696","cat":"communications"},{"name":"S-NET D","l1":"1 43186U 18014G   26183.70155815  .00005721  00000+0  29427-3 0  9999","l2":"2 43186  97.5348  88.3957 0007207 337.1693  22.9219 15.16818309461118","cat":"other"},{"name":"S-NET B","l1":"1 43187U 18014H   26183.71331411  .00005594  00000+0  28807-3 0  9998","l2":"2 43187  97.5353  88.3942 0007694 331.2014  28.8793 15.16789173461119","cat":"other"},{"name":"S-NET A","l1":"1 43188U 18014J   26183.70035021  .00005827  00000+0  29960-3 0  9996","l2":"2 43188  97.5363  88.5933 0007587 332.0948  27.9877 15.16826895461115","cat":"other"},{"name":"S-NET C","l1":"1 43189U 18014K   26183.71726963  .00005404  00000+0  27839-3 0  9994","l2":"2 43189  97.5383  88.6871 0008720 322.3116  37.7505 15.16780921459662","cat":"other"},{"name":"OOV-CUBE (TUBSAT-30)","l1":"1 60240U 24128F   26183.69186645  .00002197  00000+0  17578-3 0  9993","l2":"2 60240  61.9926 171.5059 0042719 137.2336 223.2093 15.02831807108446","cat":"other"},{"name":"LPNTSAT-001 (IOD-1)","l1":"1 68408U 26065A   26182.63918262  .00002801  00000+0  13827-3 0  9995","l2":"2 68408  97.3999  62.8427 0015215 318.8569  41.1518 15.18610529 14459","cat":"other"}]